ONEWEB-0247             
1 48777U 21045L   23347.80860922  .00000047  00000+0  90449-4 0  9999
2 48777  87.9016  81.6351 0001560 152.5292 207.5921 13.15547327123929
ONEWEB-0245             
1 48778U 21045M   23348.18414724  .00000221  00000+0  55294-3 0  9999
2 48778  87.9003  81.5642 0001963 114.7915 245.3420 13.15547523125077
ONEWEB-0229             
1 48779U 21045N   23347.79911049  .00000153  00000+0  37256-3 0  9990
2 48779  87.9005  81.6321 0001553 114.6307 245.4985 13.15548516123926
ONEWEB-0228             
1 48780U 21045P   23347.81410564 -.00001427  00000+0 -38245-2 0  9996
2 48780  87.9005  81.6094 0001634 111.9356 248.1948 13.15548011123849
ONEWEB-0232             
1 48781U 21045Q   23347.80703158  .00000099  00000+0  22895-3 0  9997
2 48781  87.8955  81.6457 0001477 112.3337 247.7950 13.15549630124167
ONEWEB-0231             
1 48782U 21045R   23347.78485077  .00000055  00000+0  11157-3 0  9993
2 48782  87.9013  81.6453 0001571 117.3021 242.8270 13.15549492123852
ONEWEB-0234             
1 48783U 21045S   23347.80470021  .00000124  00000+0  29420-3 0  9999
2 48783  87.9005  81.6156 0003039  94.3888 265.7590 13.15546732123998
ONEWEB-0238             
1 48784U 21045T   23347.83474388 -.00000107  00000+0 -31834-3 0  9998
2 48784  87.9005  81.6285 0001837 106.3071 253.8262 13.15542266123895
